[Satellite]
VERSION=1.1
NAME=STARLINK-4762
NICKNAME=STARLINK-4762
TLE1=1 53866U 22114BA  22290.91667824 -.00034523  00000+0 -24211-3 0  9997
TLE2=2 53866  53.2159 115.8612 0001074  82.4691  80.4608 15.73244599  1300
STATUS=0
